AAUSAT 4                
1 41460U 16025E   21312.20542511  .00008847  00000-0  39944-3 0  9997
2 41460  98.1601 101.8923 0141881 279.3817  79.1412 15.12611467304438
BEESAT-4                
1 41619U 16040W   21311.93979104  .00004538  00000-0  17619-3 0  9999
2 41619  97.2512   3.9462 0010515 174.5862 185.5493 15.26529045286895
CANX-7                  
1 41788U 16059F   21312.04919939  .00053510  00000-0  51159-2 0  9999
2 41788  98.2485  63.1526 0019454  99.9919 260.3125 14.92866359275239
RAVAN                   
1 41849U 16067B   21311.83052997  .00002083  00000-0  17543-3 0  9993
2 41849  97.9808  77.9327 0006505   3.7783 356.3487 14.99364845272772
CELTEE 1                
1 41850U 16067C   21311.80859631  .00001041  00000-0  94224-4 0  9997
2 41850  97.9714  73.8912 0008432   2.6104 357.5160 14.97633188272577
OPTICUBE 04             
1 41851U 16067D   21311.57977553  .00000160  00000-0  19169-4 0  9992
2 41851  97.9712  72.9365 0009143   8.2633 351.8737 14.97236044272507
AEROCUBE 8D             
1 41852U 16067E   21311.77284480  .00001088  00000-0  98770-4 0  9990
2 41852  97.9711  73.0357 0009770   8.2387 351.8992 14.97428741272513
AEROCUBE 8C             
1 41853U 16067F   21311.81604930  .00001531  00000-0  13696-3 0  9998
2 41853  97.9695  72.9297 0009706   8.4359 351.7023 14.97387124272519
PROMETHEUS 2-1          
1 41854U 16067G   21311.77153979  .00001860  00000-0  16264-3 0  9995
2 41854  97.9726  73.6347 0010293   8.1096 352.0290 14.98002481272541
PROMETHEUS 2-3          
1 41855U 16067H   21311.76731147  .00002235  00000-0  19430-3 0  9999
2 41855  97.9726  73.6920 0010365   8.8597 351.2806 14.98018529272546
INS-1B                  
1 41954U 17008G   21311.95112231  .00004028  00000-0  15391-3 0  9997
2 41954  97.2908  11.8517 0007202 311.0540  49.0076 15.27163879262902
BGUSAT                  
1 41999U 17008BD  21311.91206786  .00007797  00000-0  25640-3 0  9995
2 41999  97.3103  19.6085 0005548 310.3163  49.7593 15.31788878262659
DIDO-2                  
1 42000U 17008BE  21312.12916959  .00002372  00000-0  95078-4 0  9990
2 42000  97.2906  12.0603 0007114 335.0344  25.0549 15.25971038262295
PEASSS                  
1 42015U 17008BV  21311.90633701  .00003857  00000-0  14488-3 0  9996
2 42015  97.2954  14.7338 0005069 338.3400  21.7625 15.27768487262915
AL-FARABI 1             
1 42016U 17008BW  21311.43191541  .00005163  00000-0  18447-3 0  9997
2 42016  97.3011  16.4311 0004765 337.1625  22.9402 15.29256631263078
NAYIF-1 (EO-88)         
1 42017U 17008BX  21312.17947422  .00005012  00000-0  17876-3 0  9995
2 42017  97.3002  17.1709 0004739 332.6090  27.4900 15.29328468263212
UCLSAT                  
1 42765U 17036A   21311.87333654  .00004314  00000-0  17154-3 0  9991
2 42765  97.2316 356.8198 0011497  38.6046 321.6012 15.25742593244034
LITUANICASAT-2          
1 42768U 17036D   21311.85928325  .00007140  00000-0  26449-3 0  9994
2 42768  97.2396 358.1189 0013580  25.0571 335.1325 15.27856513243359
AALTO-1                 
1 42775U 17036L   21311.85590231  .00002556  00000-0  11060-3 0  9992
2 42775  97.2295 352.9339 0014234  36.0365 324.1829 15.23225467243029
URSA MAIOR              
1 42776U 17036M   21311.83129641  .00002639  00000-0  11303-3 0  9996
2 42776  97.2309 353.4635 0013985  35.3966 324.8197 15.23548259243046
COMPASS 2               
1 42777U 17036N   21311.50951548  .00005033  00000-0  19287-3 0  9990
2 42777  97.2381 357.7518 0011902  29.1385 331.0516 15.26898349243234
DIAMOND RED             
1 42783U 17036U   21311.83325119  .00002971  00000-0  12325-3 0  9996
2 42783  97.2322 355.3981 0012512  42.2602 317.9598 15.24551101243154
PEGASUS                 
1 42784U 17036V   21311.56801483  .00003389  00000-0  13745-3 0  9991
2 42784  97.2327 355.9678 0012233  41.2329 318.9831 15.25222150243166
DIAMOND GREEN           
1 42785U 17036W   21311.57005477  .00003048  00000-0  12645-3 0  9992
2 42785  97.2327 355.1971 0012402  43.7170 316.5048 15.24536759243182
DIAMOND BLUE            
1 42786U 17036X   21311.70038440  .00003010  00000-0  12489-3 0  9999
2 42786  97.2326 355.3151 0012356  43.8304 316.3912 15.24539816243200
NUDTSAT                 
1 42787U 17036Y   21311.96501370  .00011454  00000-0  42534-3 0  9990
2 42787  97.2373 359.2732 0010971  32.9745 327.2177 15.27662777243233
SUCHAI                  
1 42788U 17036Z   21311.87975113  .00004639  00000-0  18176-3 0  9993
2 42788  97.2333 357.4593 0011560  37.4386 322.7656 15.26203257243359
SKCUBE                  
1 42789U 17036AA  21311.87103263  .00004253  00000-0  16855-3 0  9997
2 42789  97.2329 357.0885 0011509  38.1130 322.0921 15.25861721243255
VZLUSAT-1               
1 42790U 17036AB  21311.89665498  .00005625  00000-0  21080-3 0  9994
2 42790  97.2362 359.1931 0010592  33.3057 326.8847 15.27600128243371
ROBUSTA-1B              
1 42792U 17036AD  21311.55335643  .00004383  00000-0  17218-3 0  9993
2 42792  97.2330 357.2207 0011134  39.4617 320.7431 15.26145880243241
CICERO 6                
1 42793U 17036AE  21312.05839597  .00002736  00000-0  11325-3 0  9990
2 42793  97.2302 356.2053 0010780  42.6762 317.5312 15.24709354243312
D-SAT                   
1 42794U 17036AF  21311.84568597  .00001081  00000-0  97034-4 0  9990
2 42794  97.4567 324.0981 0126642 106.4621 255.0559 14.91761112238438
CORVUS BC2              
1 42846U 17042X   21311.85296322  .00000759  00000-0  79133-4 0  9991
2 42846  97.4490 176.3666 0010234  27.1778 332.9976 14.92414606235226
CORVUS BC1              
1 42847U 17042Y   21312.08246753  .00000435  00000-0  47411-4 0  9996
2 42847  97.4494 176.8490 0009879  26.1163 334.0554 14.92509960235268
MIRATA                  
1 43015U 17073C   21311.69474005  .00002422  00000-0  18715-3 0  9999
2 43015  97.6897 210.4471 0247088 188.0014 171.7227 14.81396826214418
MAKERSAT 0              
1 43016U 17073D   21311.47081874  .00002077  00000-0  16265-3 0  9998
2 43016  97.6928 210.1520 0251489 191.5712 167.9655 14.80453918214338
AEROCUBE 7B (OCSD B)    
1 43042U 17071F   21311.86227314  .00019301  00000-0  31863-3 0  9998
2 43042  51.6365  79.4405 0002391 115.0417 245.0822 15.52273126221073
AEROCUBE 7C (OCSD C)    
1 43043U 17071G   21311.90997008  .00019731  00000-0  32945-3 0  9997
2 43043  51.6355  79.7462 0002610 121.2079 238.9166 15.51937806221046
CHEFSAT                 
1 43044U 17071H   21311.81729649  .00140094  00000-0  83029-3 0  9998
2 43044  51.6291  27.7791 0004963   2.0560 358.0460 15.77098822221739
ASGARDIA 1              
1 43049U 17071N   21312.06704480  .00016306  00000-0  27803-3 0  9993
2 43049  51.6377  78.7033 0001047 150.3038 209.8011 15.51497654221060
ISARA                   
1 43050U 17071P   21311.86857059  .00065798  00000-0  58396-3 0  9993
2 43050  51.6300  39.8855 0002923 344.5748  15.5158 15.67925849221576
PROPCUBE 2 (FAUNA)      
1 43052U 17071R   21311.73854390  .00020208  00000-0  32623-3 0  9998
2 43052  51.6360  75.7445 0000689 148.2959 211.8073 15.52865061221073
CORVUS BC3              
1 43118U 18004H   21311.63908682  .00002616  00000-0  10811-3 0  9999
2 43118  97.3898  22.3721 0011386  69.6407 290.6053 15.24832876212399
MICROMAS-2A             
1 43131U 18004W   21311.67334103  .00006505  00000-0  23473-3 0  9998
2 43131  97.3999  26.7074 0009332  62.1119 298.1065 15.28813692212633
SPACEBEE-4              
1 43139U 18004AE  21312.17715008  .00010152  00000-0  33223-3 0  9996
2 43139  97.4076  30.2494 0008133  58.1542 302.0490 15.31850707212861
SPACEBEE-3              
1 43140U 18004AF  21311.89423247  .00014773  00000-0  44570-3 0  9997
2 43140  97.4115  31.9686 0007308  54.8934 305.2993 15.34360922212949
SPACEBEE-2              
1 43141U 18004AG  21311.44412053  .00017305  00000-0  50709-3 0  9997
2 43141  97.4140  32.2845 0006858  54.1531 306.0348 15.35249404212916
SPACEBEE-1              
1 43142U 18004AH  21311.66611005  .00015956  00000-0  45160-3 0  9995
2 43142  97.4151  33.2969 0006684  50.8655 309.3182 15.36359858212989
CICERO 7                
1 43143U 18004AJ  21311.89644806  .00006411  00000-0  23309-3 0  9993
2 43143  97.3970  26.8869 0007906  71.1531 289.0565 15.28579939212683
GOMX-4B                 
1 43196U 18015E   21311.83143019  .00001730  00000-0  71362-4 0  9999
2 43196  97.5055  85.0074 0019578 114.4000 245.9283 15.25281468209365
GOMX-4A                 
1 43197U 18015F   21312.13425503  .00004064  00000-0  15982-3 0  9993
2 43197  97.5050  85.6982 0019713 114.5905  60.0037 15.26067067209441
AEROCUBE 12A            
1 43556U 18046C   21311.75469757  .00004453  00000-0  14868-3 0  9996
2 43556  51.6385 178.3105 0006639 321.2132  38.8372 15.33076083185254
AEROCUBE 12B            
1 43557U 18046D   21311.91195932  .00005401  00000-0  18215-3 0  9990
2 43557  51.6385 180.0643 0006824 319.4147  40.6325 15.32296455185191
SURFSAT                 
1 43614U 18070B   21311.87112307  .00008911  00000-0  19362-3 0  9994
2 43614  93.0275   5.8331 0014416 155.5284 204.6660 15.44237168176786
CP7 (DAVE)              
1 43615U 18070C   21311.59466297  .00008775  00000-0  19317-3 0  9992
2 43615  93.0280   5.6530 0014556 156.9083 203.2831 15.43849294176726
ELFIN-B                 
1 43616U 18070D   21312.13912820  .00015130  00000-0  28712-3 0  9994
2 43616  93.0227   6.2865 0014205 150.3681 209.8386 15.48158574176972
ELFIN-A                 
1 43617U 18070E   21312.11137957  .00016644  00000-0  30829-3 0  9996
2 43617  93.0283   7.2704 0013655 147.3459 212.8647 15.48857317176992
CUBEBEL-1 (BSUSAT-1)    
1 43666U 18083E   21312.18511176  .00003585  00000-0  16907-3 0  9991
2 43666  97.4445 338.7149 0015133  34.2014  34.8317 15.20030316167845
CICERO 10               
1 43690U 18088A   21311.88735746  .00004031  00000-0  17536-3 0  9996
2 43690  85.0349 102.9890 0012415 238.9315 121.0709 15.21860836166010
